[{"OBJECT_NAME":"STARLINK-34050","OBJECT_ID":"2025-124Q","EPOCH":"2025-12-30T03:25:12.526176","MEAN_MOTION":15.275936,"ECCENTRICITY":0.00024148,"INCLINATION":43.0081,"RA_OF_ASC_NODE":154.5172,"ARG_OF_PERICENTER":273.4219,"MEAN_ANOMALY":86.6356,"EPHEMERIS_TYPE":0,"CLASSIFICATION_TYPE":"U","NORAD_CAT_ID":64331,"ELEMENT_SET_NO":999,"REV_AT_EPOCH":3220,"BSTAR":0.00029158461,"MEAN_MOTION_DOT":7.773e-5,"MEAN_MOTION_DDOT":0},{"OBJECT_NAME":"STARLINK-33782","OBJECT_ID":"2025-124R","EPOCH":"2025-12-30T03:08:33.373248","MEAN_MOTION":15.27603888,"ECCENTRICITY":0.00016651,"INCLINATION":43.0019,"RA_OF_ASC_NODE":154.4227,"ARG_OF_PERICENTER":271.7149,"MEAN_ANOMALY":88.3512,"EPHEMERIS_TYPE":0,"CLASSIFICATION_TYPE":"U","NORAD_CAT_ID":64332,"ELEMENT_SET_NO":999,"REV_AT_EPOCH":3114,"BSTAR":0.0012992304,"MEAN_MOTION_DOT":0.00035689,"MEAN_MOTION_DDOT":0},{"OBJECT_NAME":"STARLINK-34207","OBJECT_ID":"2025-124S","EPOCH":"2025-12-30T03:34:29.930592","MEAN_MOTION":15.27565176,"ECCENTRICITY":0.00017798,"INCLINATION":43.0032,"RA_OF_ASC_NODE":154.5667,"ARG_OF_PERICENTER":276.1917,"MEAN_ANOMALY":83.8732,"EPHEMERIS_TYPE":0,"CLASSIFICATION_TYPE":"U","NORAD_CAT_ID":64333,"ELEMENT_SET_NO":999,"REV_AT_EPOCH":3114,"BSTAR":0.0012117361,"MEAN_MOTION_DOT":0.00033218,"MEAN_MOTION_DDOT":0},{"OBJECT_NAME":"STARLINK-34260","OBJECT_ID":"2025-124T","EPOCH":"2025-12-29T19:54:46.571616","MEAN_MOTION":15.27628143,"ECCENTRICITY":0.00043994,"INCLINATION":43.0074,"RA_OF_ASC_NODE":156.4716,"ARG_OF_PERICENTER":301.0697,"MEAN_ANOMALY":58.9723,"EPHEMERIS_TYPE":0,"CLASSIFICATION_TYPE":"U","NORAD_CAT_ID":64334,"ELEMENT_SET_NO":999,"REV_AT_EPOCH":3109,"BSTAR":0.0016150088,"MEAN_MOTION_DOT":0.00044522,"MEAN_MOTION_DDOT":0},{"OBJECT_NAME":"STARLINK-33855","OBJECT_ID":"2025-124U","EPOCH":"2025-12-30T03:03:00.418752","MEAN_MOTION":15.27591976,"ECCENTRICITY":0.00016115,"INCLINATION":42.9985,"RA_OF_ASC_NODE":154.3899,"ARG_OF_PERICENTER":274.5673,"MEAN_ANOMALY":85.4995,"EPHEMERIS_TYPE":0,"CLASSIFICATION_TYPE":"U","NORAD_CAT_ID":64335,"ELEMENT_SET_NO":999,"REV_AT_EPOCH":3114,"BSTAR":0.0011877901,"MEAN_MOTION_DOT":0.0003258,"MEAN_MOTION_DDOT":0},{"OBJECT_NAME":"STARLINK-34223","OBJECT_ID":"2025-124V","EPOCH":"2025-12-30T02:47:03.318432","MEAN_MOTION":15.27578124,"ECCENTRICITY":0.00012403,"INCLINATION":42.9982,"RA_OF_ASC_NODE":150.847,"ARG_OF_PERICENTER":278.2368,"MEAN_ANOMALY":81.8343,"EPHEMERIS_TYPE":0,"CLASSIFICATION_TYPE":"U","NORAD_CAT_ID":64336,"ELEMENT_SET_NO":999,"REV_AT_EPOCH":3118,"BSTAR":0.0022833646,"MEAN_MOTION_DOT":0.00063107,"MEAN_MOTION_DDOT":0},{"OBJECT_NAME":"STARLINK-34216","OBJECT_ID":"2025-124W","EPOCH":"2025-12-29T18:51:51.786720","MEAN_MOTION":15.27620791,"ECCENTRICITY":0.0002358,"INCLINATION":43.0019,"RA_OF_ASC_NODE":156.1332,"ARG_OF_PERICENTER":275.3998,"MEAN_ANOMALY":84.6585,"EPHEMERIS_TYPE":0,"CLASSIFICATION_TYPE":"U","NORAD_CAT_ID":64337,"ELEMENT_SET_NO":999,"REV_AT_EPOCH":3109,"BSTAR":0.0014997062,"MEAN_MOTION_DOT":0.00041291,"MEAN_MOTION_DDOT":0},{"OBJECT_NAME":"STARLINK-34218","OBJECT_ID":"2025-124X","EPOCH":"2025-12-30T03:03:42.028992","MEAN_MOTION":15.27600417,"ECCENTRICITY":0.00017895,"INCLINATION":43.0027,"RA_OF_ASC_NODE":150.9426,"ARG_OF_PERICENTER":269.9294,"MEAN_ANOMALY":90.1353,"EPHEMERIS_TYPE":0,"CLASSIFICATION_TYPE":"U","NORAD_CAT_ID":64338,"ELEMENT_SET_NO":999,"REV_AT_EPOCH":3118,"BSTAR":0.000566246,"MEAN_MOTION_DOT":0.00015362,"MEAN_MOTION_DDOT":0},{"OBJECT_NAME":"STARLINK-34017","OBJECT_ID":"2025-124Y","EPOCH":"2025-12-30T03:19:40.255104","MEAN_MOTION":15.27586753,"ECCENTRICITY":4.236e-5,"INCLINATION":42.9958,"RA_OF_ASC_NODE":154.4815,"ARG_OF_PERICENTER":32.9516,"MEAN_ANOMALY":327.1362,"EPHEMERIS_TYPE":0,"CLASSIFICATION_TYPE":"U","NORAD_CAT_ID":64339,"ELEMENT_SET_NO":999,"REV_AT_EPOCH":3114,"BSTAR":0.0013627313,"MEAN_MOTION_DOT":0.00037436,"MEAN_MOTION_DDOT":0},{"OBJECT_NAME":"STARLINK-33977","OBJECT_ID":"2025-126A","EPOCH":"2025-12-29T23:49:40.714176","MEAN_MOTION":14.98287421,"ECCENTRICITY":0.00034275,"INCLINATION":69.9993,"RA_OF_ASC_NODE":210.1236,"ARG_OF_PERICENTER":229.4071,"MEAN_ANOMALY":130.6791,"EPHEMERIS_TYPE":0,"CLASSIFICATION_TYPE":"U","NORAD_CAT_ID":64344,"ELEMENT_SET_NO":999,"REV_AT_EPOCH":3145,"BSTAR":0.0058026911,"MEAN_MOTION_DOT":0.00069762,"MEAN_MOTION_DDOT":0},{"OBJECT_NAME":"STARLINK-34426","OBJECT_ID":"2025-126B","EPOCH":"2025-12-30T01:19:35.302944","MEAN_MOTION":14.98352141,"ECCENTRICITY":0.00037001,"INCLINATION":69.9998,"RA_OF_ASC_NODE":209.9343,"ARG_OF_PERICENTER":259.2653,"MEAN_ANOMALY":100.809,"EPHEMERIS_TYPE":0,"CLASSIFICATION_TYPE":"U","NORAD_CAT_ID":64345,"ELEMENT_SET_NO":999,"REV_AT_EPOCH":3025,"BSTAR":0.001323671,"MEAN_MOTION_DOT":0.00015746,"MEAN_MOTION_DDOT":0},{"OBJECT_NAME":"STARLINK-34437","OBJECT_ID":"2025-126C","EPOCH":"2025-12-30T06:50:02.740416","MEAN_MOTION":14.98340799,"ECCENTRICITY":0.00020069,"INCLINATION":70.0013,"RA_OF_ASC_NODE":209.5318,"ARG_OF_PERICENTER":272.1034,"MEAN_ANOMALY":87.9895,"EPHEMERIS_TYPE":0,"CLASSIFICATION_TYPE":"U","NORAD_CAT_ID":64346,"ELEMENT_SET_NO":999,"REV_AT_EPOCH":3028,"BSTAR":0.00033285891,"MEAN_MOTION_DOT":3.882e-5,"MEAN_MOTION_DDOT":0},{"OBJECT_NAME":"STARLINK-34407","OBJECT_ID":"2025-126D","EPOCH":"2025-12-30T06:56:17.627424","MEAN_MOTION":14.98339949,"ECCENTRICITY":0.00023908,"INCLINATION":70.0022,"RA_OF_ASC_NODE":209.5436,"ARG_OF_PERICENTER":282.3056,"MEAN_ANOMALY":77.7836,"EPHEMERIS_TYPE":0,"CLASSIFICATION_TYPE":"U","NORAD_CAT_ID":64347,"ELEMENT_SET_NO":999,"REV_AT_EPOCH":3028,"BSTAR":0.00044592493,"MEAN_MOTION_DOT":5.233e-5,"MEAN_MOTION_DDOT":0},{"OBJECT_NAME":"STARLINK-34274","OBJECT_ID":"2025-126E","EPOCH":"2025-12-30T07:14:05.234208","MEAN_MOTION":14.98339359,"ECCENTRICITY":0.00025104,"INCLINATION":70.0007,"RA_OF_ASC_NODE":209.5922,"ARG_OF_PERICENTER":270.7568,"MEAN_ANOMALY":89.3303,"EPHEMERIS_TYPE":0,"CLASSIFICATION_TYPE":"U","NORAD_CAT_ID":64348,"ELEMENT_SET_NO":999,"REV_AT_EPOCH":3028,"BSTAR":0.00033325525,"MEAN_MOTION_DOT":3.886e-5,"MEAN_MOTION_DDOT":0},{"OBJECT_NAME":"STARLINK-34301","OBJECT_ID":"2025-126F","EPOCH":"2025-12-29T23:49:32.952864","MEAN_MOTION":14.98444928,"ECCENTRICITY":0.0006023,"INCLINATION":70.0011,"RA_OF_ASC_NODE":210.1201,"ARG_OF_PERICENTER":201.587,"MEAN_ANOMALY":158.5037,"EPHEMERIS_TYPE":0,"CLASSIFICATION_TYPE":"U","NORAD_CAT_ID":64349,"ELEMENT_SET_NO":999,"REV_AT_EPOCH":3024,"BSTAR":0.0015471474,"MEAN_MOTION_DOT":0.00018476,"MEAN_MOTION_DDOT":0},{"OBJECT_NAME":"STARLINK-34425","OBJECT_ID":"2025-126G","EPOCH":"2025-12-30T06:44:01.878720","MEAN_MOTION":14.98340027,"ECCENTRICITY":0.00027398,"INCLINATION":70.0016,"RA_OF_ASC_NODE":209.5142,"ARG_OF_PERICENTER":270.2729,"MEAN_ANOMALY":89.8116,"EPHEMERIS_TYPE":0,"CLASSIFICATION_TYPE":"U","NORAD_CAT_ID":64350,"ELEMENT_SET_NO":999,"REV_AT_EPOCH":3028,"BSTAR":0.00027487564,"MEAN_MOTION_DOT":3.189e-5,"MEAN_MOTION_DDOT":0}]
