STARLINK-34050          
1 64331U 25124Q   25364.14250609  .00007773  00000+0  29158-3 0  9999
2 64331  43.0081 154.5172 0002414 273.4219  86.6356 15.27593600 32208
STARLINK-33782          
1 64332U 25124R   25364.13094182  .00035689  00000+0  12992-2 0  9995
2 64332  43.0019 154.4227 0001665 271.7149  88.3512 15.27603888 31145
STARLINK-34207          
1 64333U 25124S   25364.14895753  .00033218  00000+0  12117-2 0  9995
2 64333  43.0032 154.5667 0001779 276.1917  83.8732 15.27565176 31149
STARLINK-34260          
1 64334U 25124T   25363.82970569  .00044522  00000+0  16150-2 0  9990
2 64334  43.0074 156.4716 0004399 301.0697  58.9723 15.27628143 31097
STARLINK-33855          
1 64335U 25124U   25364.12708818  .00032580  00000+0  11878-2 0  9994
2 64335  42.9985 154.3899 0001611 274.5673  85.4995 15.27591976 31143
STARLINK-34223          
1 64336U 25124V   25364.11601063  .00063107  00000+0  22834-2 0  9991
2 64336  42.9982 150.8470 0001240 278.2368  81.8343 15.27578124 31188
STARLINK-34216          
1 64337U 25124W   25363.78601605  .00041291  00000+0  14997-2 0  9997
2 64337  43.0019 156.1332 0002358 275.3998  84.6585 15.27620791 31093
STARLINK-34218          
1 64338U 25124X   25364.12756978  .00015362  00000+0  56625-3 0  9996
2 64338  43.0027 150.9426 0001789 269.9294  90.1353 15.27600417 31182
STARLINK-34017          
1 64339U 25124Y   25364.13866036  .00037436  00000+0  13627-2 0  9995
2 64339  42.9958 154.4815 0000423  32.9516 327.1362 15.27586753 31149
STARLINK-33977          
1 64344U 25126A   25363.99283234  .00069762  00000+0  58027-2 0  9999
2 64344  69.9993 210.1236 0003427 229.4071 130.6791 14.98287421 31450
STARLINK-34426          
1 64345U 25126B   25364.05526971  .00015746  00000+0  13237-2 0  9993
2 64345  69.9998 209.9343 0003700 259.2653 100.8090 14.98352141 30252
STARLINK-34437          
1 64346U 25126C   25364.28475394  .00003882  00000+0  33286-3 0  9996
2 64346  70.0013 209.5318 0002006 272.1034  87.9895 14.98340799 30284
STARLINK-34407          
1 64347U 25126D   25364.28909291  .00005233  00000+0  44592-3 0  9999
2 64347  70.0022 209.5436 0002390 282.3056  77.7836 14.98339949 30286
STARLINK-34274          
1 64348U 25126E   25364.30144947  .00003886  00000+0  33326-3 0  9997
2 64348  70.0007 209.5922 0002510 270.7568  89.3303 14.98339359 30286
STARLINK-34301          
1 64349U 25126F   25363.99274251  .00018476  00000+0  15471-2 0  9995
2 64349  70.0011 210.1201 0006023 201.5870 158.5037 14.98444928 30249
STARLINK-34425          
1 64350U 25126G   25364.28057730  .00003189  00000+0  27488-3 0  9998
2 64350  70.0016 209.5142 0002739 270.2729  89.8116 14.98340027 30281
